{"fetched_at":"2026-03-30T06:02:59Z","count":15439,"tles":[{"name":"STARLINK-32204","line1":"1 60584U 24150B   26087.77488166  .00001097  00000+0  49160-4 0  9995","line2":"2 60584  53.1615 218.3608 0001252  80.4994 279.6149 15.30199246 90960","category":"Starlink"}]}